STARLINK-30232          
1 57303U 23096P   26062.55373434  .00922781  42992-3  14272-2 0  9994
2 57303  42.9711 173.6749 0024909   0.5692 359.5211 16.02753938147515
STARLINK-30209          
1 57307U 23096T   26061.38385295  .07402874  92504-5  21000-2 0  9992
2 57307  42.9575 178.4941 0023126 349.9616  10.0807 16.25821908146595
QIANKUN-1               
1 57422U 23103B   26062.29450556  .00001027  16837-5  18278-5 0  9992
2 57422  96.1975 114.2263 0029965 170.4480 189.7382 16.07673571150280
OBJECT B                
1 57425U 23104B   26062.77383637  .00338106  45785-4  97502-3 0  9993
2 57425  97.2682 151.1284 0002129 315.3760  44.7343 15.93048307147131
SATORO-T2               
1 60477U 24149K   26061.82471123  .11883383  25182-5  50664-3 0  9999
2 60477  97.3532 155.3194 0011601 281.1702  78.8295 16.42460453 86630
RUZAEVKA 390 (RS44S)    
1 61766U 24199AH  26062.43927156  .00961673  46616-3  17289-2 0  9991
2 61766  97.2870 304.2866 0001823 158.3638 201.7718 16.01759118118520
SZ-19 DEB               
1 63801U 24194E   26062.53162020  .00597624  20096-3  48449-3 0  9998
2 63801  41.4593 201.1962 0013338   3.8145 356.2812 16.13114509 48220
UNICORN-2P              
1 63981U 25052BT  26061.66207648  .09021256  24713-5  43615-2 0  9993
2 63981  97.3657 322.3273 0007441 165.4209 194.7296 16.21197985 54085
COSMOS 2591             
1 65267U 25182A   26062.42010674  .00055098  30133-5  13372-3 0  9995
2 65267  96.5909 355.7870 0007103 180.7419 179.3850 15.96406340 30826
COSMOS 2592             
1 65268U 25182B   26062.31039876  .00004565  18637-5  12416-4 0  9996
2 65268  96.5918 355.6378 0005902 184.7662 175.3562 15.96354432 30806
COSMOS 2593             
1 65269U 25182C   26062.32609116  .00021068  20256-5  52294-4 0  9993
2 65269  96.5891 355.6268 0006982 177.1736 182.9583 15.96303761 30808
COSMOS 2594             
1 65270U 25182D   26062.40444488  .00103806  59704-5  25055-3 0  9998
2 65270  96.5904 355.6716 0005973 168.5262 191.6153 15.96432145 30832
ISS OBJECT XK           
1 65731U 98067XK  26062.43355898  .00940340  47493-3  13197-2 0  9996
2 65731  51.6160  79.7208 0005912  55.9691 304.1882 16.05216946 25898
BOTAN                   
1 65942U 98067XP  26062.30429369  .04760636  12041-4  14503-2 0  9997
2 65942  51.6040  82.5602 0002926  46.9281 313.1984 16.26065138 22591
CZ-4B R/B               
1 66989U 25289B   26062.56969095  .02035726  25114-5  73831-3 0  9997
2 66989  97.5038 140.7547 0030486  49.5210 310.8729 16.23473774 13369
ZK-1A R/B               
1 67002U 25292K   26062.51976948  .03352042  26507-5  89210-3 0  9997
2 67002  97.6822 149.2973 0038219  57.9916 302.5080 16.26168594 13118
